{
  "type": "FeatureCollection",
  "features": [
    {
      "type": "Feature",
      "properties": {
        "norad_id": 34924,
        "name": "COSMOS 2251 DEB",
        "group": "cosmos-2251-debris",
        "lat": -65.93005178746084,
        "lon": 43.78593394377068,
        "alt_km": 719.291474220332,
        "timestamp": "2025-12-15T19:00:45.754177+00:00",
        "meta_object_name": "COSMOS 2251 DEB",
        "meta_object_id": "1993-036ADV",
        "meta_epoch": "2025-12-14T17:44:27.313728",
        "meta_mean_motion": 14.60056274,
        "meta_eccentricity": 0.00541909,
        "meta_inclination": 74.0408,
        "meta_ra_of_asc_node": 85.6328,
        "meta_arg_of_pericenter": 169.805,
        "meta_mean_anomaly": 345.4755,
        "meta_ephemeris_type": 0,
        "meta_classification_type": "U",
        "meta_norad_cat_id": 34924,
        "meta_element_set_no": 999,
        "meta_rev_at_epoch": 87752,
        "meta_bstar": 0.00085328013,
        "meta_mean_motion_dot": 4.157e-05,
        "meta_mean_motion_ddot": 0,
        "tle_line1": "1 34924U 93036ADV 25348.73920502  .00004157  00000+0  85328-3 0  9998",
        "tle_line2": "2 34924  74.0408  85.6328 0054190 169.8050 345.4755 14.60056274877524"
      },
      "geometry": {
        "type": "Point",
        "coordinates": [
          43.78593394377068,
          -65.93005178746084
        ]
      }
    },
    {
      "type": "Feature",
      "properties": {
        "norad_id": 34944,
        "name": "COSMOS 2251 DEB",
        "group": "cosmos-2251-debris",
        "lat": -64.5522272800825,
        "lon": 84.3382761996397,
        "alt_km": 1010.0662706351204,
        "timestamp": "2025-12-15T19:00:45.754187+00:00",
        "meta_object_name": "COSMOS 2251 DEB",
        "meta_object_id": "1993-036ADX",
        "meta_epoch": "2025-12-07T09:30:46.029312",
        "meta_mean_motion": 14.14167925,
        "meta_eccentricity": 0.02195348,
        "meta_inclination": 73.7495,
        "meta_ra_of_asc_node": 241.6775,
        "meta_arg_of_pericenter": 90.2413,
        "meta_mean_anomaly": 272.3884,
        "meta_ephemeris_type": 0,
        "meta_classification_type": "U",
        "meta_norad_cat_id": 34944,
        "meta_element_set_no": 999,
        "meta_rev_at_epoch": 64007,
        "meta_bstar": 0.00099492053,
        "meta_mean_motion_dot": 2.364e-05,
        "meta_mean_motion_ddot": 0,
        "tle_line1": "1 34944U 93036ADX 25341.39636608  .00002364  00000+0  99492-3 0  9991",
        "tle_line2": "2 34944  73.7495 241.6775 0219534  90.2413 272.3884 14.14167925640077"
      },
      "geometry": {
        "type": "Point",
        "coordinates": [
          84.3382761996397,
          -64.5522272800825
        ]
      }
    },
    {
      "type": "Feature",
      "properties": {
        "norad_id": 34946,
        "name": "COSMOS 2251 DEB",
        "group": "cosmos-2251-debris",
        "lat": 24.591370876628716,
        "lon": 148.7354335035307,
        "alt_km": 659.7712534596321,
        "timestamp": "2025-12-15T19:00:45.754198+00:00",
        "meta_object_name": "COSMOS 2251 DEB",
        "meta_object_id": "1993-036ADZ",
        "meta_epoch": "2025-12-11T09:12:32.820480",
        "meta_mean_motion": 14.61985522,
        "meta_eccentricity": 0.0048688,
        "meta_inclination": 74.0237,
        "meta_ra_of_asc_node": 344.7115,
        "meta_arg_of_pericenter": 122.3418,
        "meta_mean_anomaly": 238.2476,
        "meta_ephemeris_type": 0,
        "meta_classification_type": "U",
        "meta_norad_cat_id": 34946,
        "meta_element_set_no": 999,
        "meta_rev_at_epoch": 88189,
        "meta_bstar": 0.00095647955,
        "meta_mean_motion_dot": 4.849e-05,
        "meta_mean_motion_ddot": 0,
        "tle_line1": "1 34946U 93036ADZ 25345.38371320  .00004849  00000+0  95648-3 0  9992",
        "tle_line2": "2 34946  74.0237 344.7115 0048688 122.3418 238.2476 14.61985522881890"
      },
      "geometry": {
        "type": "Point",
        "coordinates": [
          148.7354335035307,
          24.591370876628716
        ]
      }
    },
    {
      "type": "Feature",
      "properties": {
        "norad_id": 34949,
        "name": "COSMOS 2251 DEB",
        "group": "cosmos-2251-debris",
        "lat": -2.5734471344525756,
        "lon": -75.56722335853486,
        "alt_km": 627.6636133145139,
        "timestamp": "2025-12-15T19:00:45.754208+00:00",
        "meta_object_name": "COSMOS 2251 DEB",
        "meta_object_id": "1993-036AEC",
        "meta_epoch": "2025-12-14T01:27:27.021888",
        "meta_mean_motion": 14.74012104,
        "meta_eccentricity": 0.00803584,
        "meta_inclination": 74.0179,
        "meta_ra_of_asc_node": 107.0758,
        "meta_arg_of_pericenter": 252.1324,
        "meta_mean_anomaly": 107.1073,
        "meta_ephemeris_type": 0,
        "meta_classification_type": "U",
        "meta_norad_cat_id": 34949,
        "meta_element_set_no": 999,
        "meta_rev_at_epoch": 88381,
        "meta_bstar": 0.00063432266,
        "meta_mean_motion_dot": 4.359e-05,
        "meta_mean_motion_ddot": 0,
        "tle_line1": "1 34949U 93036AEC 25348.06072942  .00004359  00000+0  63432-3 0  9993",
        "tle_line2": "2 34949  74.0179 107.0758 0080358 252.1324 107.1073 14.74012104883811"
      },
      "geometry": {
        "type": "Point",
        "coordinates": [
          -75.56722335853486,
          -2.5734471344525756
        ]
      }
    },
    {
      "type": "Feature",
      "properties": {
        "norad_id": 34953,
        "name": "COSMOS 2251 DEB",
        "group": "cosmos-2251-debris",
        "lat": 68.90681953005925,
        "lon": 153.9307919959679,
        "alt_km": 657.9289128823993,
        "timestamp": "2025-12-15T19:00:45.754218+00:00",
        "meta_object_name": "COSMOS 2251 DEB",
        "meta_object_id": "1993-036AEG",
        "meta_epoch": "2025-12-14T20:27:52.163712",
        "meta_mean_motion": 14.68980556,
        "meta_eccentricity": 0.00581585,
        "meta_inclination": 74.0936,
        "meta_ra_of_asc_node": 23.4135,
        "meta_arg_of_pericenter": 14.8001,
        "meta_mean_anomaly": 162.1563,
        "meta_ephemeris_type": 0,
        "meta_classification_type": "U",
        "meta_norad_cat_id": 34953,
        "meta_element_set_no": 999,
        "meta_rev_at_epoch": 88159,
        "meta_bstar": 0.00054633691,
        "meta_mean_motion_dot": 3.254e-05,
        "meta_mean_motion_ddot": 0,
        "tle_line1": "1 34953U 93036AEG 25348.85268708  .00003254  00000+0  54634-3 0  9999",
        "tle_line2": "2 34953  74.0936  23.4135 0058158  14.8001 162.1563 14.68980556881591"
      },
      "geometry": {
        "type": "Point",
        "coordinates": [
          153.9307919959679,
          68.90681953005925
        ]
      }
    },
    {
      "type": "Feature",
      "properties": {
        "norad_id": 34955,
        "name": "COSMOS 2251 DEB",
        "group": "cosmos-2251-debris",
        "lat": -41.264983359209765,
        "lon": 74.84496880715314,
        "alt_km": 566.684691092647,
        "timestamp": "2025-12-15T19:00:45.754228+00:00",
        "meta_object_name": "COSMOS 2251 DEB",
        "meta_object_id": "1993-036AEJ",
        "meta_epoch": "2025-12-11T10:00:38.398176",
        "meta_mean_motion": 15.00495775,
        "meta_eccentricity": 0.00779991,
        "meta_inclination": 74.0375,
        "meta_ra_of_asc_node": 249.1952,
        "meta_arg_of_pericenter": 319.1032,
        "meta_mean_anomaly": 40.4318,
        "meta_ephemeris_type": 0,
        "meta_classification_type": "U",
        "meta_norad_cat_id": 34955,
        "meta_element_set_no": 999,
        "meta_rev_at_epoch": 90014,
        "meta_bstar": 0.0014966224,
        "meta_mean_motion_dot": 0.00020131,
        "meta_mean_motion_ddot": 0,
        "tle_line1": "1 34955U 93036AEJ 25345.41711109  .00020131  00000+0  14966-2 0  9994",
        "tle_line2": "2 34955  74.0375 249.1952 0077999 319.1032  40.4318 15.00495775900143"
      },
      "geometry": {
        "type": "Point",
        "coordinates": [
          74.84496880715314,
          -41.264983359209765
        ]
      }
    },
    {
      "type": "Feature",
      "properties": {
        "norad_id": 34962,
        "name": "COSMOS 2251 DEB",
        "group": "cosmos-2251-debris",
        "lat": 37.81502857489297,
        "lon": -5.1783038829403285,
        "alt_km": 746.4382851552582,
        "timestamp": "2025-12-15T19:00:45.754238+00:00",
        "meta_object_name": "COSMOS 2251 DEB",
        "meta_object_id": "1993-036AER",
        "meta_epoch": "2025-12-14T07:30:32.402592",
        "meta_mean_motion": 14.46523059,
        "meta_eccentricity": 0.00187495,
        "meta_inclination": 74.0294,
        "meta_ra_of_asc_node": 190.4257,
        "meta_arg_of_pericenter": 303.6463,
        "meta_mean_anomaly": 56.2907,
        "meta_ephemeris_type": 0,
        "meta_classification_type": "U",
        "meta_norad_cat_id": 34962,
        "meta_element_set_no": 999,
        "meta_rev_at_epoch": 87601,
        "meta_bstar": 0.00049664855,
        "meta_mean_motion_dot": 1.766e-05,
        "meta_mean_motion_ddot": 0,
        "tle_line1": "1 34962U 93036AER 25348.31287503  .00001766  00000+0  49665-3 0  9998",
        "tle_line2": "2 34962  74.0294 190.4257 0018749 303.6463  56.2907 14.46523059876014"
      },
      "geometry": {
        "type": "Point",
        "coordinates": [
          -5.1783038829403285,
          37.81502857489297
        ]
      }
    }
  ]
}